STARLINK-11149 [DTC]    
1 60041U 24112D   26076.74261147 -.00000959  00000+0 -30599-5 0  9999
2 60041  53.1590 226.7281 0001091 100.7197 259.3944 15.69701745102240
STARLINK-11120 [DTC]    
1 60042U 24112E   26076.41934919 -.00000595  00000+0 -54652-7 0  9992
2 60042  53.1576 228.2662 0000996  87.8812 272.2320 15.69719501102192
STARLINK-11086 [DTC]    
1 60043U 24112F   26076.41444324  .00002544  00000+0  25860-4 0  9999
2 60043  53.1583 228.2323 0001625  87.2212 272.8992 15.69702750102192
STARLINK-11148 [DTC]    
1 60044U 24112G   26076.40954084  .00000949  00000+0  12688-4 0  9999
2 60044  53.1591 228.1996 0000775 107.0086 253.1017 15.69703050102196
STARLINK-11116 [DTC]    
1 60045U 24112H   26076.78665457 -.00000009  00000+0  47904-5 0  9992
2 60045  53.1565 226.2847 0001344  96.9708 263.1463 15.69707411102250
STARLINK-11155 [DTC]    
1 60046U 24112J   26076.78175080  .00000748  00000+0  11037-4 0  9997
2 60046  53.1588 226.2526 0001171  94.9236 265.1915 15.69702685102254
STARLINK-11163 [DTC]    
1 60047U 24112K   26076.14015320 -.00000020  00000+0  47025-5 0  9999
2 60047  53.1590 229.3586 0001484  91.9565 268.1623 15.69699113102156
STARLINK-11135 [DTC]    
1 60048U 24112L   26076.82579883  .00001138  00000+0  14258-4 0  9995
2 60048  53.1606 225.8241 0001362  85.2744 274.8429 15.69704125102264
STARLINK-11151 [DTC]    
1 60049U 24112M   26076.70827580 -.00000350  00000+0  19649-5 0  9999
2 60049  53.1589 226.5002 0000740 356.3016   3.7996 15.69696059102243
STARLINK-11137 [DTC]    
1 60050U 24112N   26076.70336763  .00000348  00000+0  77218-5 0  9991
2 60050  53.1579 226.4672 0000596   4.5888 355.5135 15.69701762102245
STARLINK-31811          
1 60051U 24112P   26076.86622102 -.00002877  00000+0 -85058-4 0  9995
2 60051  53.1620  40.3531 0001484  98.3756 261.7413 15.30194843 99844
STARLINK-31775          
1 60052U 24112Q   26076.92203640  .00000710  00000+0  36106-4 0  9997
2 60052  53.1615  39.9951 0001184  89.1778 270.9359 15.30198367 99855
STARLINK-31793          
1 60053U 24112R   26076.92837125  .00000200  00000+0  18874-4 0  9995
2 60053  53.1621  40.0351 0001205  85.4964 274.6175 15.30191321 99850
STARLINK-31735          
1 60054U 24112S   26076.91568792  .00003305  00000+0  12365-3 0  9993
2 60054  53.1608  39.9528 0001138  75.5715 284.5413 15.30204358 99858
STARLINK-31788          
1 60055U 24112T   26076.91253715 -.00001674  00000+0 -44406-4 0  9991
2 60055  53.1626  39.9342 0001145 102.4841 257.6288 15.30192606 99854
STARLINK-31825          
1 60056U 24112U   26076.91887291  .00000436  00000+0  26838-4 0  9996
2 60056  53.1623  39.9778 0001312  90.4838 269.6313 15.30190774 99859
