[{"OBJECT_NAME":"STARLINK-11149 [DTC]","OBJECT_ID":"2024-112D","EPOCH":"2026-03-17T17:49:21.631008","MEAN_MOTION":15.69701745,"ECCENTRICITY":0.00010912,"INCLINATION":53.159,"RA_OF_ASC_NODE":226.7281,"ARG_OF_PERICENTER":100.7197,"MEAN_ANOMALY":259.3944,"EPHEMERIS_TYPE":0,"CLASSIFICATION_TYPE":"U","NORAD_CAT_ID":60041,"ELEMENT_SET_NO":999,"REV_AT_EPOCH":10224,"BSTAR":-3.059872e-6,"MEAN_MOTION_DOT":-9.59e-6,"MEAN_MOTION_DDOT":0},{"OBJECT_NAME":"STARLINK-11120 [DTC]","OBJECT_ID":"2024-112E","EPOCH":"2026-03-17T10:03:51.770016","MEAN_MOTION":15.69719501,"ECCENTRICITY":9.964e-5,"INCLINATION":53.1576,"RA_OF_ASC_NODE":228.2662,"ARG_OF_PERICENTER":87.8812,"MEAN_ANOMALY":272.232,"EPHEMERIS_TYPE":0,"CLASSIFICATION_TYPE":"U","NORAD_CAT_ID":60042,"ELEMENT_SET_NO":999,"REV_AT_EPOCH":10219,"BSTAR":-5.4652e-8,"MEAN_MOTION_DOT":-5.95e-6,"MEAN_MOTION_DDOT":0},{"OBJECT_NAME":"STARLINK-11086 [DTC]","OBJECT_ID":"2024-112F","EPOCH":"2026-03-17T09:56:47.895936","MEAN_MOTION":15.6970275,"ECCENTRICITY":0.00016253,"INCLINATION":53.1583,"RA_OF_ASC_NODE":228.2323,"ARG_OF_PERICENTER":87.2212,"MEAN_ANOMALY":272.8992,"EPHEMERIS_TYPE":0,"CLASSIFICATION_TYPE":"U","NORAD_CAT_ID":60043,"ELEMENT_SET_NO":999,"REV_AT_EPOCH":10219,"BSTAR":2.5859771e-5,"MEAN_MOTION_DOT":2.544e-5,"MEAN_MOTION_DDOT":0},{"OBJECT_NAME":"STARLINK-11148 [DTC]","OBJECT_ID":"2024-112G","EPOCH":"2026-03-17T09:49:44.328576","MEAN_MOTION":15.6970305,"ECCENTRICITY":7.753e-5,"INCLINATION":53.1591,"RA_OF_ASC_NODE":228.1996,"ARG_OF_PERICENTER":107.0086,"MEAN_ANOMALY":253.1017,"EPHEMERIS_TYPE":0,"CLASSIFICATION_TYPE":"U","NORAD_CAT_ID":60044,"ELEMENT_SET_NO":999,"REV_AT_EPOCH":10219,"BSTAR":1.2688143e-5,"MEAN_MOTION_DOT":9.49e-6,"MEAN_MOTION_DDOT":0},{"OBJECT_NAME":"STARLINK-11116 [DTC]","OBJECT_ID":"2024-112H","EPOCH":"2026-03-17T18:52:46.954848","MEAN_MOTION":15.69707411,"ECCENTRICITY":0.00013442,"INCLINATION":53.1565,"RA_OF_ASC_NODE":226.2847,"ARG_OF_PERICENTER":96.9708,"MEAN_ANOMALY":263.1463,"EPHEMERIS_TYPE":0,"CLASSIFICATION_TYPE":"U","NORAD_CAT_ID":60045,"ELEMENT_SET_NO":999,"REV_AT_EPOCH":10225,"BSTAR":4.790369e-6,"MEAN_MOTION_DOT":-9.0e-8,"MEAN_MOTION_DDOT":0},{"OBJECT_NAME":"STARLINK-11155 [DTC]","OBJECT_ID":"2024-112J","EPOCH":"2026-03-17T18:45:43.269120","MEAN_MOTION":15.69702685,"ECCENTRICITY":0.00011711,"INCLINATION":53.1588,"RA_OF_ASC_NODE":226.2526,"ARG_OF_PERICENTER":94.9236,"MEAN_ANOMALY":265.1915,"EPHEMERIS_TYPE":0,"CLASSIFICATION_TYPE":"U","NORAD_CAT_ID":60046,"ELEMENT_SET_NO":999,"REV_AT_EPOCH":10225,"BSTAR":1.1036933e-5,"MEAN_MOTION_DOT":7.48e-6,"MEAN_MOTION_DDOT":0},{"OBJECT_NAME":"STARLINK-11163 [DTC]","OBJECT_ID":"2024-112K","EPOCH":"2026-03-17T03:21:49.236480","MEAN_MOTION":15.69699113,"ECCENTRICITY":0.00014846,"INCLINATION":53.159,"RA_OF_ASC_NODE":229.3586,"ARG_OF_PERICENTER":91.9565,"MEAN_ANOMALY":268.1623,"EPHEMERIS_TYPE":0,"CLASSIFICATION_TYPE":"U","NORAD_CAT_ID":60047,"ELEMENT_SET_NO":999,"REV_AT_EPOCH":10215,"BSTAR":4.702469e-6,"MEAN_MOTION_DOT":-2.0e-7,"MEAN_MOTION_DDOT":0},{"OBJECT_NAME":"STARLINK-11135 [DTC]","OBJECT_ID":"2024-112L","EPOCH":"2026-03-17T19:49:09.018912","MEAN_MOTION":15.69704125,"ECCENTRICITY":0.00013626,"INCLINATION":53.1606,"RA_OF_ASC_NODE":225.8241,"ARG_OF_PERICENTER":85.2744,"MEAN_ANOMALY":274.8429,"EPHEMERIS_TYPE":0,"CLASSIFICATION_TYPE":"U","NORAD_CAT_ID":60048,"ELEMENT_SET_NO":999,"REV_AT_EPOCH":10226,"BSTAR":1.4258408e-5,"MEAN_MOTION_DOT":1.138e-5,"MEAN_MOTION_DDOT":0},{"OBJECT_NAME":"STARLINK-11151 [DTC]","OBJECT_ID":"2024-112M","EPOCH":"2026-03-17T16:59:55.029120","MEAN_MOTION":15.69696059,"ECCENTRICITY":7.403e-5,"INCLINATION":53.1589,"RA_OF_ASC_NODE":226.5002,"ARG_OF_PERICENTER":356.3016,"MEAN_ANOMALY":3.7996,"EPHEMERIS_TYPE":0,"CLASSIFICATION_TYPE":"U","NORAD_CAT_ID":60049,"ELEMENT_SET_NO":999,"REV_AT_EPOCH":10224,"BSTAR":1.964876e-6,"MEAN_MOTION_DOT":-3.5e-6,"MEAN_MOTION_DDOT":0},{"OBJECT_NAME":"STARLINK-11137 [DTC]","OBJECT_ID":"2024-112N","EPOCH":"2026-03-17T16:52:50.963232","MEAN_MOTION":15.69701762,"ECCENTRICITY":5.964e-5,"INCLINATION":53.1579,"RA_OF_ASC_NODE":226.4672,"ARG_OF_PERICENTER":4.5888,"MEAN_ANOMALY":355.5135,"EPHEMERIS_TYPE":0,"CLASSIFICATION_TYPE":"U","NORAD_CAT_ID":60050,"ELEMENT_SET_NO":999,"REV_AT_EPOCH":10224,"BSTAR":7.721797e-6,"MEAN_MOTION_DOT":3.48e-6,"MEAN_MOTION_DDOT":0},{"OBJECT_NAME":"STARLINK-31811","OBJECT_ID":"2024-112P","EPOCH":"2026-03-17T20:47:21.496128","MEAN_MOTION":15.30194843,"ECCENTRICITY":0.00014848,"INCLINATION":53.162,"RA_OF_ASC_NODE":40.3531,"ARG_OF_PERICENTER":98.3756,"MEAN_ANOMALY":261.7413,"EPHEMERIS_TYPE":0,"CLASSIFICATION_TYPE":"U","NORAD_CAT_ID":60051,"ELEMENT_SET_NO":999,"REV_AT_EPOCH":9984,"BSTAR":-8.5057885e-5,"MEAN_MOTION_DOT":-2.877e-5,"MEAN_MOTION_DDOT":0},{"OBJECT_NAME":"STARLINK-31775","OBJECT_ID":"2024-112Q","EPOCH":"2026-03-17T22:07:43.944960","MEAN_MOTION":15.30198367,"ECCENTRICITY":0.00011846,"INCLINATION":53.1615,"RA_OF_ASC_NODE":39.9951,"ARG_OF_PERICENTER":89.1778,"MEAN_ANOMALY":270.9359,"EPHEMERIS_TYPE":0,"CLASSIFICATION_TYPE":"U","NORAD_CAT_ID":60052,"ELEMENT_SET_NO":999,"REV_AT_EPOCH":9985,"BSTAR":3.6106331e-5,"MEAN_MOTION_DOT":7.1e-6,"MEAN_MOTION_DDOT":0},{"OBJECT_NAME":"STARLINK-31793","OBJECT_ID":"2024-112R","EPOCH":"2026-03-17T22:16:51.276000","MEAN_MOTION":15.30191321,"ECCENTRICITY":0.00012059,"INCLINATION":53.1621,"RA_OF_ASC_NODE":40.0351,"ARG_OF_PERICENTER":85.4964,"MEAN_ANOMALY":274.6175,"EPHEMERIS_TYPE":0,"CLASSIFICATION_TYPE":"U","NORAD_CAT_ID":60053,"ELEMENT_SET_NO":999,"REV_AT_EPOCH":9985,"BSTAR":1.8874248e-5,"MEAN_MOTION_DOT":2.0e-6,"MEAN_MOTION_DDOT":0},{"OBJECT_NAME":"STARLINK-31735","OBJECT_ID":"2024-112S","EPOCH":"2026-03-17T21:58:35.436288","MEAN_MOTION":15.30204358,"ECCENTRICITY":0.00011388,"INCLINATION":53.1608,"RA_OF_ASC_NODE":39.9528,"ARG_OF_PERICENTER":75.5715,"MEAN_ANOMALY":284.5413,"EPHEMERIS_TYPE":0,"CLASSIFICATION_TYPE":"U","NORAD_CAT_ID":60054,"ELEMENT_SET_NO":999,"REV_AT_EPOCH":9985,"BSTAR":0.00012364765,"MEAN_MOTION_DOT":3.305e-5,"MEAN_MOTION_DDOT":0},{"OBJECT_NAME":"STARLINK-31788","OBJECT_ID":"2024-112T","EPOCH":"2026-03-17T21:54:03.209760","MEAN_MOTION":15.30192606,"ECCENTRICITY":0.00011454,"INCLINATION":53.1626,"RA_OF_ASC_NODE":39.9342,"ARG_OF_PERICENTER":102.4841,"MEAN_ANOMALY":257.6288,"EPHEMERIS_TYPE":0,"CLASSIFICATION_TYPE":"U","NORAD_CAT_ID":60055,"ELEMENT_SET_NO":999,"REV_AT_EPOCH":9985,"BSTAR":-4.4406192e-5,"MEAN_MOTION_DOT":-1.674e-5,"MEAN_MOTION_DDOT":0},{"OBJECT_NAME":"STARLINK-31825","OBJECT_ID":"2024-112U","EPOCH":"2026-03-17T22:03:10.619424","MEAN_MOTION":15.30190774,"ECCENTRICITY":0.00013124,"INCLINATION":53.1623,"RA_OF_ASC_NODE":39.9778,"ARG_OF_PERICENTER":90.4838,"MEAN_ANOMALY":269.6313,"EPHEMERIS_TYPE":0,"CLASSIFICATION_TYPE":"U","NORAD_CAT_ID":60056,"ELEMENT_SET_NO":999,"REV_AT_EPOCH":9985,"BSTAR":2.6838372e-5,"MEAN_MOTION_DOT":4.36e-6,"MEAN_MOTION_DDOT":0}]
